AEROCUBE 12A            
1 43556U 18046C   19217.17606083  .00000430  00000-0  27752-4 0  9997
2 43556  51.6418 188.8615 0007933 239.3455 120.6744 15.28805201 58829
AEROCUBE 12B            
1 43557U 18046D   19217.45518857  .00001360  00000-0  60707-4 0  9990
2 43557  51.6416 187.7207 0008035 240.1549 119.8633 15.28667555 58815
UITMSAT-1               
1 43589U 98067PD  19216.88100066  .00008573  00000-0  99656-4 0  9999
2 43589  51.6358 104.6779 0004676 339.1678  20.9125 15.62643541 56123
MAYA-1                  
1 43590U 98067PE  19216.87553045  .00008454  00000-0  98284-4 0  9993
2 43590  51.6360 104.6461 0004812 339.2475  20.8323 15.62662150 56052
BHUTAN-1                
1 43591U 98067PF  19216.92841457  .00008613  00000-0  99796-4 0  9993
2 43591  51.6371 104.2747 0004980 340.2156  19.8644 15.62721665 56064
SIRIUSSAT-1             
1 43595U 98067PG  19216.87570251  .00007940  00000-0  95557-4 0  9995
2 43595  51.6362 106.1474 0002504 292.1675  67.9053 15.61858069 55219
SIRIUSSAT-2             
1 43596U 98067PH  19216.91086491  .00007939  00000-0  96140-4 0  9996
2 43596  51.6372 106.4213 0003009 291.8927  68.1747 15.61697268 55217
TANUSHA-3               
1 43597U 98067PJ  19216.92319915  .00010574  00000-0  11780-3 0  9993
2 43597  51.6355 104.1855 0002557 312.9475  47.1305 15.63451389 55240
SURFSAT                 
1 43614U 18070B   19216.91223842  .00001759  00000-0  47538-4 0  9997
2 43614  93.0242  23.1437 0018284 119.1302 241.1784 15.37669622 49669
CP7 (DAVE)              
1 43615U 18070C   19216.92049895  .00001680  00000-0  45553-4 0  9991
2 43615  93.0245  23.1473 0018372 118.6050 241.7055 15.37583536 49661
ELFIN-B                 
1 43616U 18070D   19216.90859965  .00002725  00000-0  72124-4 0  9992
2 43616  93.0213  23.0524 0019189 121.9644 238.3479 15.38263699 49675
ELFIN-A                 
1 43617U 18070E   19216.90107516  .00002587  00000-0  68410-4 0  9990
2 43617  93.0268  23.3011 0018404 119.1245 241.1854 15.38308634 49673
CUBEBEL-1 (BSUSAT-1)    
1 43666U 18083E   19217.56637595  .00000487  00000-0  27566-4 0  9990
2 43666  97.5174 241.7140 0015863  27.7214 123.7155 15.17644511 42549
DEBRISSAT-2             
1 43680U 98067PR  19216.87955349  .00013293  00000-0  14081-3 0  9995
2 43680  51.6363 103.9368 0002422 336.6678  23.4207 15.64479543 63977
CICERO 10               
1 43690U 18088A   19216.90529055  .00000545  00000-0  23576-4 0  9992
2 43690  85.0383 287.4273 0016518  41.9467 318.3036 15.19715185 40524
IRVINE01                
1 43693U 18088D   19217.23338669  .00001505  00000-0  64786-4 0  9996
2 43693  85.0356 286.7203 0019198  25.7204 334.4988 15.21513996 40599
PROXIMA I               
1 43694U 18088E   19216.66649127  .00000595  00000-0  24554-4 0  9994
2 43694  85.0326 286.9115 0020034  18.7002 341.4971 15.21436064 40512
PROXIMA II              
1 43696U 18088G   19216.86279216  .00000565  00000-0  23196-4 0  9994
2 43696  85.0326 286.7829 0020047  17.9454 342.2491 15.21440861 40549
FACSAT-1                
1 43721U 18096C   19217.13431259  .00001096  00000-0  44833-4 0  9991
2 43721  97.4571 286.9190 0018630 157.8683 202.3363 15.26377909 37977
CENTAURI-2              
1 43722U 18096D   19216.78014108  .00001320  00000-0  53039-4 0  9990
2 43722  97.4575 286.6276 0018753 159.7024 200.4965 15.26610893 37913
INNOSAT-2               
1 43738U 18096V   19217.16821129  .00001744  00000-0  64552-4 0  9991
2 43738  97.4578 287.7951 0024789 170.3143 189.8580 15.28790934 38036
SIRION PATHFINDER-2     
1 43759U 18099B   19217.43643352 -.00000077  00000-0 -17234-5 0  9993
2 43759  97.7429 288.8314 0014890 155.8440 204.3482 14.95145587 36552
CORVUS-BC 4             
1 43767U 18099K   19216.85773482 -.00000061  00000-0 -38283-6 0  9996
2 43767  97.7413 288.0066 0012331 160.1175 200.0529 14.94585600 36460
MOVE-II                 
1 43780U 18099Y   19217.18864408  .00000010  00000-0  61933-5 0  9996
2 43780  97.7419 288.4984 0014034 167.8751 192.2810 14.95086032 36506
SPACEBEE-7              
1 43816U 18099BL  19217.46321929  .00000228  00000-0  25811-4 0  9998
2 43816  97.7433 288.9512 0014287 152.6403 207.5573 14.95432320 36118
SPACEBEE-5              
1 43817U 18099BM  19217.17379657  .00000291  00000-0  31353-4 0  9996
2 43817  97.7458 288.7527 0014140 153.5333 206.6613 14.95694219 36077
SPACEBEE-6              
1 43818U 18099BN  19216.78664775  .00000028  00000-0  77354-5 0  9991
2 43818  97.7441 288.3111 0014155 154.7371 205.4545 14.95516830 36169
SHIELDS 1               
1 43850U 18104B   19216.61804253  .00000042  00000-0  00000-0 0  9998
2 43850  85.0273  25.4321 0016038 149.8400 210.3773 15.21107145 35152
STF-1                   
1 43852U 18104D   19216.63773065  .00000041  00000-0  00000-0 0  9997
2 43852  85.0318  25.6893 0014897 162.3867 197.7929 15.20658395 35145
ZACUBE-2                
1 43907U 18111AH  19217.20676845  .00000308  00000-0  15436-4 0  9997
2 43907  97.2860 121.1324 0021618 179.1809 180.9468 15.24219813 33686
LUME 1                  
1 43908U 18111AJ  19217.52303596  .00000715  00000-0  31884-4 0  9990
2 43908  97.2859 121.4655 0021550 178.1489 181.9832 15.24391565 33730
AOBA VELOX-IV           
1 43940U 19003J   19216.89486817  .00001027  00000-0  45161-4 0  9994
2 43940  97.2744 273.4045 0022903 264.8828 182.2065 15.23906806 30270
CATSAT-2                
1 44029U 98067PV  19217.11538717  .00007041  00000-0  10227-3 0  9999
2 44029  51.6393 113.7991 0004525 333.6210  26.4551 15.57013759 28964
DELPHINI                
1 44030U 98067PW  19217.10534396  .00006781  00000-0  98100-4 0  9996
2 44030  51.6384 113.7175 0004049 332.4629  27.6148 15.57194377 28930
UNITE                   
1 44031U 98067PX  19217.10749321  .00004463  00000-0  69592-4 0  9991
2 44031  51.6392 114.4854 0002839 331.6854  28.3983 15.56090165 28921
TECHEDSAT 8             
1 44032U 98067PY  19216.93063809  .00015938  00000-0  19053-3 0  9997
2 44032  51.6378 111.8025 0002612 338.5980  21.4904 15.61174784 28925
CATSAT-1                
1 44033U 98067PZ  19217.24366036  .00007379  00000-0  10684-3 0  9992
2 44033  51.6391 113.1563 0004318 334.8327  25.2453 15.57016698 28893
RAAVANA-1               
1 44329U 98067QE  19216.90671980  .00004184  00000-0  74775-4 0  9992
2 44329  51.6412 119.1497 0006531 258.0119 102.0139 15.52410727  7597
UGUISU                  
1 44330U 98067QF  19216.90788178  .00004212  00000-0  75327-4 0  9998
2 44330  51.6411 119.1573 0006500 256.5502 103.4764 15.52372870  7571
NEPALISAT-1             
1 44331U 98067QG  19216.90562206  .00004247  00000-0  75687-4 0  9998
2 44331  51.6412 119.1426 0006554 259.2518 100.7734 15.52445741  7582
SPOOQY-1                
1 44332U 98067QH  19216.90447323  .00004145  00000-0  73967-4 0  9997
2 44332  51.6410 119.1338 0005295 261.5148  98.5242 15.52481904  7544
SPACEBEE-9              
1 44370U 19037F   19216.88037969 -.00000349  00000-0  00000-0 0  9994
2 44370  45.0133  85.4590 0015361 120.0130 240.2612 15.39304353  5604
SPACEBEE-8              
1 44371U 19037G   19217.00656016 -.00000352  00000-0  00000+0 0  9993
2 44371  45.0143  84.7166 0018400 129.2255 231.0982 15.39558350  5610
MOVE-IIB                
1 44398U 19038N   19216.88365001  .00000653  00000-0  41954-4 0  9990
2 44398  97.4910 178.2369 0026632 138.3607 221.9658 15.11596805  4595
SONATE                  
1 44400U 19038Q   19216.88266462  .00000225  00000-0  16943-4 0  9990
2 44400  97.4920 178.2351 0026503 136.8338 223.4977 15.11634429  4598
LUCKY-7                 
1 44406U 19038W   19216.87897310  .00000266  00000-0  19228-4 0  9991
2 44406  97.4920 178.2400 0025967 136.7448 223.5828 15.11819249  4583
BEESAT 9                
1 44412U 19038AC  19216.88012037  .00000422  00000-0  28395-4 0  9993
2 44412  97.4919 178.2380 0023964 142.0220 218.2706 15.11765756  4284
JAISAT-1                
1 44419U 19038F   19216.87011214  .00000396  00000-0  26504-4 0  9995
2 44419  97.4921 178.2518 0022834 141.8400 218.4452 15.12261964  4596
SWIATOWID               
1 44426U 98067QL  19212.29025139  .00007759  00000-0  13470-3 0  9992
2 44426  51.6418 142.3186 0004100 190.7885 169.3018 15.51868425  4350
KRAKSAT                 
1 44427U 98067QM  19217.21017102  .00003007  00000-0  57100-4 0  9992
2 44427  51.6450 117.8860 0003925 202.7553 294.9842 15.51771203  5159
VCC A                   
1 44428U 98067QN  19216.92394593  .00004271  00000-0  77286-4 0  9993
2 44428  51.6423 119.2669 0002831 226.0148 134.0609 15.51989798  5118
ENTRYSAT                
1 44429U 98067QP  19216.73009302  .00005299  00000-0  93856-4 0  9996
2 44429  51.6422 120.2228 0002790 213.8000 146.2812 15.52045598  5085
VCC C                   
1 44430U 98067QQ  19216.92400385  .00003990  00000-0  72731-4 0  9990
2 44430  51.6423 119.2667 0002780 226.3105 133.7655 15.51977038  3948
VCC B                   
1 44431U 98067QR  19217.11775746  .00004544  00000-0  81809-4 0  9991
2 44431  51.6422 118.3111 0002987 226.1863 133.8880 15.51963727  5088
